{"type": "FeatureCollection", "features": [ {"type": "Feature", "properties": {"norad_id": 66383, "name": "STARLINK-35690", "group": "last-30-days", "lat": 51.49730400848999, "lon": 61.59264820619743, "alt_km": 427.2809294753133, "timestamp": "2025-12-02T15:49:05.947759+00:00", "meta": {"OBJECT_NAME": "STARLINK-35690", "OBJECT_ID": "2025-257D", "EPOCH": "2025-12-02T06:00:02.999808", "MEAN_MOTION": 15.45507597, "ECCENTRICITY": 0.00012357, "INCLINATION": 53.1591, "RA_OF_ASC_NODE": 314.0049, "ARG_OF_PERICENTER": 95.3138, "MEAN_ANOMALY": 250.7829, "EPHEMERIS_TYPE": 0, "CLASSIFICATION_TYPE": "U", "NORAD_CAT_ID": 66383, "ELEMENT_SET_NO": 999, "REV_AT_EPOCH": 481, "BSTAR": -0.046835643, "MEAN_MOTION_DOT": -0.02032637, "MEAN_MOTION_DDOT": 0}, "tle": {"line1": "1 66383U 25257D   25336.25003472 -.02032637  00000+0 -46836-1 0  9991", "line2": "2 66383  53.1591 314.0049 0001235  95.3138 250.7829 15.45507597  4817"}}, "geometry": {"type": "Point", "coordinates": [61.59264820619743, 51.49730400848999]}}, {"type": "Feature", "properties": {"norad_id": 66384, "name": "STARLINK-35662", "group": "last-30-days", "lat": 50.96113193948193, "lon": 64.45412685703464, "alt_km": 427.36040053084525, "timestamp": "2025-12-02T15:49:05.947769+00:00", "meta": {"OBJECT_NAME": "STARLINK-35662", "OBJECT_ID": "2025-257E", "EPOCH": "2025-12-02T06:00:02.999808", "MEAN_MOTION": 15.45494997, "ECCENTRICITY": 0.0001289, "INCLINATION": 53.1588, "RA_OF_ASC_NODE": 314.0021, "ARG_OF_PERICENTER": 88.7973, "MEAN_ANOMALY": 259.1812, "EPHEMERIS_TYPE": 0, "CLASSIFICATION_TYPE": "U", "NORAD_CAT_ID": 66384, "ELEMENT_SET_NO": 999, "REV_AT_EPOCH": 481, "BSTAR": -0.046719612, "MEAN_MOTION_DOT": -0.02027394, "MEAN_MOTION_DDOT": 0}, "tle": {"line1": "1 66384U 25257E   25336.25003472 -.02027394  00000+0 -46720-1 0  9998", "line2": "2 66384  53.1588 314.0021 0001289  88.7973 259.1812 15.45494997  4810"}}, "geometry": {"type": "Point", "coordinates": [64.45412685703464, 50.96113193948193]}}, {"type": "Feature", "properties": {"norad_id": 66385, "name": "STARLINK-35659", "group": "last-30-days", "lat": 52.73845796001114, "lon": 32.34447050986763, "alt_km": 434.5707274590095, "timestamp": "2025-12-02T15:49:05.947779+00:00", "meta": {"OBJECT_NAME": "STARLINK-35659", "OBJECT_ID": "2025-257F", "EPOCH": "2025-12-02T06:00:02.999808", "MEAN_MOTION": 15.42541485, "ECCENTRICITY": 0.00017475, "INCLINATION": 53.1593, "RA_OF_ASC_NODE": 314.034, "ARG_OF_PERICENTER": 91.7536, "MEAN_ANOMALY": 240.6063, "EPHEMERIS_TYPE": 0, "CLASSIFICATION_TYPE": "U", "NORAD_CAT_ID": 66385, "ELEMENT_SET_NO": 999, "REV_AT_EPOCH": 481, "BSTAR": -0.042224357, "MEAN_MOTION_DOT": -0.01663495, "MEAN_MOTION_DDOT": 0}, "tle": {"line1": "1 66385U 25257F   25336.25003472 -.01663495  00000+0 -42224-1 0  9991", "line2": "2 66385  53.1593 314.0340 0001747  91.7536 240.6063 15.42541485  4814"}}, "geometry": {"type": "Point", "coordinates": [32.34447050986763, 52.73845796001114]}}, {"type": "Feature", "properties": {"norad_id": 66386, "name": "STARLINK-35651", "group": "last-30-days", "lat": 46.27878287817275, "lon": 80.41038319155219, "alt_km": 419.8894152761941, "timestamp": "2025-12-02T15:49:05.947790+00:00", "meta": {"OBJECT_NAME": "STARLINK-35651", "OBJECT_ID": "2025-257G", "EPOCH": "2025-12-02T06:00:02.999808", "MEAN_MOTION": 15.48364627, "ECCENTRICITY": 0.00010595, "INCLINATION": 53.1591, "RA_OF_ASC_NODE": 313.9878, "ARG_OF_PERICENTER": 106.1448, "MEAN_ANOMALY": 249.1423, "EPHEMERIS_TYPE": 0, "CLASSIFICATION_TYPE": "U", "NORAD_CAT_ID": 66386, "ELEMENT_SET_NO": 999, "REV_AT_EPOCH": 481, "BSTAR": -0.043415519, "MEAN_MOTION_DOT": -0.02076386, "MEAN_MOTION_DDOT": 0}, "tle": {"line1": "1 66386U 25257G   25336.25003472 -.02076386  00000+0 -43416-1 0  9994", "line2": "2 66386  53.1591 313.9878 0001059 106.1448 249.1423 15.48364627  4817"}}, "geometry": {"type": "Point", "coordinates": [80.41038319155219, 46.27878287817275]}}, {"type": "Feature", "properties": {"norad_id": 66387, "name": "STARLINK-35661", "group": "last-30-days", "lat": 45.312278686066286, "lon": 82.74857777164432, "alt_km": 420.1918515241259, "timestamp": "2025-12-02T15:49:05.947800+00:00", "meta": {"OBJECT_NAME": "STARLINK-35661", "OBJECT_ID": "2025-257H", "EPOCH": "2025-12-02T06:00:02.999808", "MEAN_MOTION": 15.48352605, "ECCENTRICITY": 8.504e-05, "INCLINATION": 53.159, "RA_OF_ASC_NODE": 313.9845, "ARG_OF_PERICENTER": 92.4524, "MEAN_ANOMALY": 264.7511, "EPHEMERIS_TYPE": 0, "CLASSIFICATION_TYPE": "U", "NORAD_CAT_ID": 66387, "ELEMENT_SET_NO": 999, "REV_AT_EPOCH": 481, "BSTAR": -0.043526262, "MEAN_MOTION_DOT": -0.02080185, "MEAN_MOTION_DDOT": 0}, "tle": {"line1": "1 66387U 25257H   25336.25003472 -.02080185  00000+0 -43526-1 0  9999", "line2": "2 66387  53.1590 313.9845 0000850  92.4524 264.7511 15.48352605  4815"}}, "geometry": {"type": "Point", "coordinates": [82.74857777164432, 45.312278686066286]}}, {"type": "Feature", "properties": {"norad_id": 66388, "name": "STARLINK-35647", "group": "last-30-days", "lat": 42.511809771838756, "lon": 88.60509300685025, "alt_km": 412.56824508380487, "timestamp": "2025-12-02T15:49:05.947812+00:00", "meta": {"OBJECT_NAME": "STARLINK-35647", "OBJECT_ID": "2025-257J", "EPOCH": "2025-12-02T06:00:02.999808", "MEAN_MOTION": 15.49355865, "ECCENTRICITY": 0.00011854, "INCLINATION": 53.1586, "RA_OF_ASC_NODE": 313.9793, "ARG_OF_PERICENTER": 90.5861, "MEAN_ANOMALY": 268.8869, "EPHEMERIS_TYPE": 0, "CLASSIFICATION_TYPE": "U", "NORAD_CAT_ID": 66388, "ELEMENT_SET_NO": 999, "REV_AT_EPOCH": 481, "BSTAR": -0.0021414971, "MEAN_MOTION_DOT": -0.00117965, "MEAN_MOTION_DDOT": 0}, "tle": {"line1": "1 66388U 25257J   25336.25003472 -.00117965  00000+0 -21415-2 0  9999", "line2": "2 66388  53.1586 313.9793 0001185  90.5861 268.8869 15.49355865  4811"}}, "geometry": {"type": "Point", "coordinates": [88.60509300685025, 42.511809771838756]}}, {"type": "Feature", "properties": {"norad_id": 66389, "name": "STARLINK-35694", "group": "last-30-days", "lat": 41.29906977456223, "lon": 90.82047748322134, "alt_km": 412.6286233943065, "timestamp": "2025-12-02T15:49:05.947823+00:00", "meta": {"OBJECT_NAME": "STARLINK-35694", "OBJECT_ID": "2025-257K", "EPOCH": "2025-12-02T06:00:02.999808", "MEAN_MOTION": 15.49452422, "ECCENTRICITY": 0.00013954, "INCLINATION": 53.1587, "RA_OF_ASC_NODE": 313.9746, "ARG_OF_PERICENTER": 79.1384, "MEAN_ANOMALY": 282.2728, "EPHEMERIS_TYPE": 0, "CLASSIFICATION_TYPE": "U", "NORAD_CAT_ID": 66389, "ELEMENT_SET_NO": 999, "REV_AT_EPOCH": 481, "BSTAR": -0.003269003, "MEAN_MOTION_DOT": -0.00179063, "MEAN_MOTION_DDOT": 0}, "tle": {"line1": "1 66389U 25257K   25336.25003472 -.00179063  00000+0 -32690-2 0  9994", "line2": "2 66389  53.1587 313.9746 0001395  79.1384 282.2728 15.49452422  4818"}}, "geometry": {"type": "Point", "coordinates": [90.82047748322134, 41.29906977456223]}}, {"type": "Feature", "properties": {"norad_id": 66390, "name": "STARLINK-35665", "group": "last-30-days", "lat": 16.783195685075338, "lon": 118.8777385443199, "alt_km": 416.96527626345414, "timestamp": "2025-12-02T15:49:05.947836+00:00", "meta": {"OBJECT_NAME": "STARLINK-35665", "OBJECT_ID": "2025-257L", "EPOCH": "2025-12-02T06:00:02.999808", "MEAN_MOTION": 15.49327169, "ECCENTRICITY": 0.00014445, "INCLINATION": 53.1586, "RA_OF_ASC_NODE": 313.9033, "ARG_OF_PERICENTER": 90.9868, "MEAN_ANOMALY": 304.927, "EPHEMERIS_TYPE": 0, "CLASSIFICATION_TYPE": "U", "NORAD_CAT_ID": 66390, "ELEMENT_SET_NO": 999, "REV_AT_EPOCH": 490, "BSTAR": -0.0014324881, "MEAN_MOTION_DOT": -0.00079366, "MEAN_MOTION_DDOT": 0}, "tle": {"line1": "1 66390U 25257L   25336.25003472 -.00079366  00000+0 -14325-2 0  9996", "line2": "2 66390  53.1586 313.9033 0001444  90.9868 304.9270 15.49327169  4904"}}, "geometry": {"type": "Point", "coordinates": [118.8777385443199, 16.783195685075338]}}, {"type": "Feature", "properties": {"norad_id": 66391, "name": "STARLINK-35656", "group": "last-30-days", "lat": -4.708618595480252, "lon": 135.42298892404915, "alt_km": 449.1413481964337, "timestamp": "2025-12-02T15:49:05.947846+00:00", "meta": {"OBJECT_NAME": "STARLINK-35656", "OBJECT_ID": "2025-257M", "EPOCH": "2025-12-02T06:00:02.999808", "MEAN_MOTION": 15.39566671, "ECCENTRICITY": 0.00017147, "INCLINATION": 53.1589, "RA_OF_ASC_NODE": 313.8105, "ARG_OF_PERICENTER": 73.7207, "MEAN_ANOMALY": 3.5284, "EPHEMERIS_TYPE": 0, "CLASSIFICATION_TYPE": "U", "NORAD_CAT_ID": 66391, "ELEMENT_SET_NO": 999, "REV_AT_EPOCH": 490, "BSTAR": 0.0016851715, "MEAN_MOTION_DOT": 0.00067487, "MEAN_MOTION_DDOT": 0}, "tle": {"line1": "1 66391U 25257M   25336.25003472  .00067487  00000+0  16852-2 0  9993", "line2": "2 66391  53.1589 313.8105 0001714  73.7207   3.5284 15.39566671  4902"}}, "geometry": {"type": "Point", "coordinates": [135.42298892404915, -4.708618595480252]}}, {"type": "Feature", "properties": {"norad_id": 66392, "name": "STARLINK-35671", "group": "last-30-days", "lat": 39.07199305397664, "lon": 94.5160103444358, "alt_km": 413.9993040510162, "timestamp": "2025-12-02T15:49:05.947859+00:00", "meta": {"OBJECT_NAME": "STARLINK-35671", "OBJECT_ID": "2025-257N", "EPOCH": "2025-12-02T06:00:02.999808", "MEAN_MOTION": 15.49523932, "ECCENTRICITY": 0.00010567, "INCLINATION": 53.1588, "RA_OF_ASC_NODE": 313.9679, "ARG_OF_PERICENTER": 87.1764, "MEAN_ANOMALY": 278.0133, "EPHEMERIS_TYPE": 0, "CLASSIFICATION_TYPE": "U", "NORAD_CAT_ID": 66392, "ELEMENT_SET_NO": 999, "REV_AT_EPOCH": 481, "BSTAR": -0.011821902, "MEAN_MOTION_DOT": -0.0061338, "MEAN_MOTION_DDOT": 0}, "tle": {"line1": "1 66392U 25257N   25336.25003472 -.00613380  00000+0 -11822-1 0  9996", "line2": "2 66392  53.1588 313.9679 0001056  87.1764 278.0133 15.49523932  4811"}}, "geometry": {"type": "Point", "coordinates": [94.5160103444358, 39.07199305397664]}}]}